start=new Date('2023-03-31T00:00:00.000Z').valueOf();
sats=[{"REF_FRAME":"TEME","COUNTRY_CODE":"US","EPHEMERIS_TYPE":"0","TLE_LINE2":"2 54060  53.2189 101.1941 0001255  89.3616 270.7520 15.08865822 24945","CLASSIFICATION_TYPE":"U","PERIOD":"95.436","FILE":"3875726","DECAY_DATE":null,"EPOCH":"2023-03-30T12:23:46.128768","OBJECT_NAME":"STARLINK-5169","TIME_SYSTEM":"UTC","OBJECT_ID":"2022-136K","CENTER_NAME":"EARTH","SEMIMAJOR_AXIS":"6917.801","NORAD_CAT_ID":"54060","APOAPSIS":"540.535","LAUNCH_DATE":"2022-10-20","OBJECT_TYPE":"PAYLOAD","RA_OF_ASC_NODE":"101.1941","MEAN_MOTION":"15.08865822","MEAN_MOTION_DDOT":"0.0000000000000","GP_ID":"229186290","INCLINATION":"53.2189","SITE":"AFETR","MEAN_ELEMENT_THEORY":"SGP4","RCS_SIZE":"LARGE","MEAN_MOTION_DOT":"0.00010708","ECCENTRICITY":"0.00012550","TLE_LINE1":"1 54060U 22136K   23089.51650612  .00010708  00000-0  68934-3 0  9996","ELEMENT_SET_NO":"999","ARG_OF_PERICENTER":"89.3616","REV_AT_EPOCH":"2494","BSTAR":"0.00068934000000","MEAN_ANOMALY":"270.7520","PERIAPSIS":"538.798"},{"OBJECT_ID":"2022-136L","TIME_SYSTEM":"UTC","OBJECT_NAME":"STARLINK-5209","CENTER_NAME":"EARTH","TLE_LINE2":"2 54061  53.2175  95.7936 0001286 103.0542 257.0594 15.08843773 25018","EPHEMERIS_TYPE":"0","REF_FRAME":"TEME","COUNTRY_CODE":"US","EPOCH":"2023-03-30T10:56:53.044800","DECAY_DATE":null,"FILE":"3875726","CLASSIFICATION_TYPE":"U","PERIOD":"95.437","RA_OF_ASC_NODE":"95.7936","MEAN_MOTION":"15.08843773","OBJECT_TYPE":"PAYLOAD","GP_ID":"229186041","MEAN_MOTION_DDOT":"0.0000000000000","LAUNCH_DATE":"2022-10-20","APOAPSIS":"540.623","NORAD_CAT_ID":"54061","SEMIMAJOR_AXIS":"6917.869","MEAN_MOTION_DOT":"0.00008513","RCS_SIZE":"LARGE","ECCENTRICITY":"0.00012860","SITE":"AFETR","INCLINATION":"53.2175","MEAN_ELEMENT_THEORY":"SGP4","MEAN_ANOMALY":"257.0594","PERIAPSIS":"538.844","REV_AT_EPOCH":"2501","ARG_OF_PERICENTER":"103.0542","ELEMENT_SET_NO":"999","TLE_LINE1":"1 54061U 22136L   23089.45616950  .00008513  00000-0  55224-3 0  9996","BSTAR":"0.00055224000000"},{"REV_AT_EPOCH":"2457","ARG_OF_PERICENTER":"95.0325","ELEMENT_SET_NO":"999","TLE_LINE1":"1 54062U 22136M   23089.80714258  .00000689  00000-0  61363-4 0  9994","BSTAR":"0.00006136300000","MEAN_ANOMALY":"265.0871","PERIAPSIS":"538.510","SITE":"AFETR","INCLINATION":"53.2175","MEAN_ELEMENT_THEORY":"SGP4","MEAN_MOTION_DOT":"0.00000689","RCS_SIZE":"LARGE","ECCENTRICITY":"0.00017870","LAUNCH_DATE":"2022-10-20","NORAD_CAT_ID":"54062","APOAPSIS":"540.982","SEMIMAJOR_AXIS":"6917.881","MEAN_MOTION":"15.08839754","RA_OF_ASC_NODE":"129.4266","OBJECT_TYPE":"PAYLOAD","GP_ID":"229187292","MEAN_MOTION_DDOT":"0.0000000000000","TLE_LINE2":"2 54062  53.2175 129.4266 0001787  95.0325 265.0871 15.08839754 24576","EPHEMERIS_TYPE":"0","REF_FRAME":"TEME","COUNTRY_CODE":"US","EPOCH":"2023-03-30T19:22:17.118912","DECAY_DATE":null,"FILE":"3875726","PERIOD":"95.438","CLASSIFICATION_TYPE":"U","OBJECT_ID":"2022-136M","TIME_SYSTEM":"UTC","OBJECT_NAME":"STARLINK-5170","CENTER_NAME":"EARTH"},{"ECCENTRICITY":"0.00012860","RCS_SIZE":"LARGE","MEAN_MOTION_DOT":"0.00000428","MEAN_ELEMENT_THEORY":"SGP4","INCLINATION":"53.2167","SITE":"AFETR","PERIAPSIS":"538.836","MEAN_ANOMALY":"261.9362","BSTAR":"0.00004497500000","TLE_LINE1":"1 54063U 22136N   23089.80345113  .00000428  00000-0  44975-4 0  9996","REV_AT_EPOCH":"2457","ARG_OF_PERICENTER":"98.1776","ELEMENT_SET_NO":"999","CENTER_NAME":"EARTH","TIME_SYSTEM":"UTC","OBJECT_NAME":"STARLINK-5225","OBJECT_ID":"2022-136N","FILE":"3875726","CLASSIFICATION_TYPE":"U","PERIOD":"95.437","EPOCH":"2023-03-30T19:16:58.177632","DECAY_DATE":null,"REF_FRAME":"TEME","COUNTRY_CODE":"US","TLE_LINE2":"2 54063  53.2167 129.4052 0001286  98.1776 261.9362 15.08846429 24576","EPHEMERIS_TYPE":"0","GP_ID":"229187521","MEAN_MOTION_DDOT":"0.0000000000000","OBJECT_TYPE":"PAYLOAD","RA_OF_ASC_NODE":"129.4052","MEAN_MOTION":"15.08846429","APOAPSIS":"540.615","NORAD_CAT_ID":"54063","SEMIMAJOR_AXIS":"6917.861","LAUNCH_DATE":"2022-10-20"},{"MEAN_ANOMALY":"272.8912","PERIAPSIS":"538.781","TLE_LINE1":"1 54064U 22136P   23089.45709609  .00000211  00000-0  31365-4 0  9991","ELEMENT_SET_NO":"999","ARG_OF_PERICENTER":"87.2236","REV_AT_EPOCH":"2515","BSTAR":"0.00003136500000","RCS_SIZE":"LARGE","MEAN_MOTION_DOT":"0.00000211","ECCENTRICITY":"0.00013680","INCLINATION":"53.2195","SITE":"AFETR","MEAN_ELEMENT_THEORY":"SGP4","OBJECT_TYPE":"PAYLOAD","RA_OF_ASC_NODE":"85.8570","MEAN_MOTION":"15.08845914","MEAN_MOTION_DDOT":"0.0000000000000","GP_ID":"229185791","SEMIMAJOR_AXIS":"6917.862","NORAD_CAT_ID":"54064","APOAPSIS":"540.674","LAUNCH_DATE":"2022-10-20","OBJECT_NAME":"STARLINK-5172","TIME_SYSTEM":"UTC","OBJECT_ID":"2022-136P","CENTER_NAME":"EARTH","COUNTRY_CODE":"US","REF_FRAME":"TEME","EPHEMERIS_TYPE":"0","TLE_LINE2":"2 54064  53.2195  85.8570 0001368  87.2236 272.8912 15.08845914 25154","PERIOD":"95.437","CLASSIFICATION_TYPE":"U","FILE":"3875726","DECAY_DATE":null,"EPOCH":"2023-03-30T10:58:13.102176"},{"MEAN_ANOMALY":"253.7919","PERIAPSIS":"538.783","TLE_LINE1":"1 54065U 22136Q   23089.39864511  .00000298  00000-0  36825-4 0  9990","ARG_OF_PERICENTER":"106.3226","REV_AT_EPOCH":"2451","ELEMENT_SET_NO":"999","BSTAR":"0.00003682500000","RCS_SIZE":"LARGE","MEAN_MOTION_DOT":"0.00000298","ECCENTRICITY":"0.00013880","INCLINATION":"53.2158","SITE":"AFETR","MEAN_ELEMENT_THEORY":"SGP4","OBJECT_TYPE":"PAYLOAD","RA_OF_ASC_NODE":"131.1439","MEAN_MOTION":"15.08840829","GP_ID":"229186541","MEAN_MOTION_DDOT":"0.0000000000000","APOAPSIS":"540.703","NORAD_CAT_ID":"54065","SEMIMAJOR_AXIS":"6917.878","LAUNCH_DATE":"2022-10-20","TIME_SYSTEM":"UTC","OBJECT_NAME":"STARLINK-5187","OBJECT_ID":"2022-136Q","CENTER_NAME":"EARTH","COUNTRY_CODE":"US","REF_FRAME":"TEME","TLE_LINE2":"2 54065  53.2158 131.1439 0001388 106.3226 253.7919 15.08840829 24511","EPHEMERIS_TYPE":"0","FILE":"3875726","CLASSIFICATION_TYPE":"U","PERIOD":"95.438","EPOCH":"2023-03-30T09:34:02.937504","DECAY_DATE":null},{"EPHEMERIS_TYPE":"0","TLE_LINE2":"2 54066  53.2160 130.2700 0001454 124.6365 235.4764 15.08853315 24549","REF_FRAME":"TEME","COUNTRY_CODE":"US","DECAY_DATE":null,"EPOCH":"2023-03-30T14:25:30.579168","CLASSIFICATION_TYPE":"U","PERIOD":"95.437","FILE":"3875726","OBJECT_ID":"2022-136R","OBJECT_NAME":"STARLINK-5151","TIME_SYSTEM":"UTC","CENTER_NAME":"EARTH","LAUNCH_DATE":"2022-10-20","SEMIMAJOR_AXIS":"6917.840","NORAD_CAT_ID":"54066","APOAPSIS":"540.711","RA_OF_ASC_NODE":"130.2700","MEAN_MOTION":"15.08853315","OBJECT_TYPE":"PAYLOAD","MEAN_MOTION_DDOT":"0.0000000000000","GP_ID":"229186793","SITE":"AFETR","INCLINATION":"53.2160","MEAN_ELEMENT_THEORY":"SGP4","MEAN_MOTION_DOT":"0.00016606","RCS_SIZE":"LARGE","ECCENTRICITY":"0.00014540","ELEMENT_SET_NO":"999","ARG_OF_PERICENTER":"124.6365","REV_AT_EPOCH":"2454","TLE_LINE1":"1 54066U 22136R   23089.60104837  .00016606  00000-0  10586-2 0  9997","BSTAR":"0.00105860000000","MEAN_ANOMALY":"235.4764","PERIAPSIS":"538.699"},{"MEAN_ANOMALY":"264.3817","PERIAPSIS":"538.433","ELEMENT_SET_NO":"999","ARG_OF_PERICENTER":"95.7392","REV_AT_EPOCH":"2451","TLE_LINE1":"1 54067U 22136S   23089.39129178 -.00001293  00000-0 -63136-4 0  9998","BSTAR":"-0.00006313600000","MEAN_MOTION_DOT":"-0.00001293","RCS_SIZE":"LARGE","ECCENTRICITY":"0.00019010","SITE":"AFETR","INCLINATION":"53.2172","MEAN_ELEMENT_THEORY":"SGP4","RA_OF_ASC_NODE":"131.0981","MEAN_MOTION":"15.08839118","OBJECT_TYPE":"PAYLOAD","MEAN_MOTION_DDOT":"0.0000000000000","GP_ID":"229187022","LAUNCH_DATE":"2022-10-20","SEMIMAJOR_AXIS":"6917.883","APOAPSIS":"541.063","NORAD_CAT_ID":"54067","OBJECT_ID":"2022-136S","OBJECT_NAME":"STARLINK-5174","TIME_SYSTEM":"UTC","CENTER_NAME":"EARTH","EPHEMERIS_TYPE":"0","TLE_LINE2":"2 54067  53.2172 131.0981 0001901  95.7392 264.3817 15.08839118 24510","COUNTRY_CODE":"US","REF_FRAME":"TEME","DECAY_DATE":null,"EPOCH":"2023-03-30T09:23:27.609792","PERIOD":"95.438","CLASSIFICATION_TYPE":"U","FILE":"3875726"},{"BSTAR":"0.00108260000000","REV_AT_EPOCH":"2454","ARG_OF_PERICENTER":"93.8679","ELEMENT_SET_NO":"999","TLE_LINE1":"1 54068U 22136T   23089.59368337  .00016988  00000-0  10826-2 0  9994","PERIAPSIS":"538.809","MEAN_ANOMALY":"266.2463","MEAN_ELEMENT_THEORY":"SGP4","SITE":"AFETR","INCLINATION":"53.2173","ECCENTRICITY":"0.00013140","MEAN_MOTION_DOT":"0.00016988","RCS_SIZE":"LARGE","LAUNCH_DATE":"2022-10-20","APOAPSIS":"540.627","NORAD_CAT_ID":"54068","SEMIMAJOR_AXIS":"6917.853","GP_ID":"229186291","MEAN_MOTION_DDOT":"0.0000000000000","RA_OF_ASC_NODE":"130.2267","MEAN_MOTION":"15.08849068","OBJECT_TYPE":"PAYLOAD","EPOCH":"2023-03-30T14:14:54.243168","DECAY_DATE":null,"FILE":"3875726","CLASSIFICATION_TYPE":"U","PERIOD":"95.437","TLE_LINE2":"2 54068  53.2173 130.2267 0001314  93.8679 266.2463 15.08849068 24541","EPHEMERIS_TYPE":"0","COUNTRY_CODE":"US","REF_FRAME":"TEME","CENTER_NAME":"EARTH","OBJECT_ID":"2022-136T","TIME_SYSTEM":"UTC","OBJECT_NAME":"STARLINK-5222"},{"OBJECT_TYPE":"PAYLOAD","RA_OF_ASC_NODE":"130.1351","MEAN_MOTION":"15.08855919","MEAN_MOTION_DDOT":"0.0000000000000","GP_ID":"229186042","SEMIMAJOR_AXIS":"6917.832","NORAD_CAT_ID":"54069","APOAPSIS":"540.299","LAUNCH_DATE":"2022-10-20","OBJECT_NAME":"STARLINK-5223","TIME_SYSTEM":"UTC","OBJECT_ID":"2022-136U","CENTER_NAME":"EARTH","COUNTRY_CODE":"US","REF_FRAME":"TEME","EPHEMERIS_TYPE":"0","TLE_LINE2":"2 54069  53.2162 130.1351 0000870  94.4399 265.6693 15.08855919 24545","PERIOD":"95.437","CLASSIFICATION_TYPE":"U","FILE":"3875726","DECAY_DATE":null,"EPOCH":"2023-03-30T13:53:40.003872","MEAN_ANOMALY":"265.6693","PERIAPSIS":"539.095","TLE_LINE1":"1 54069U 22136U   23089.57893523  .00004895  00000-0  32528-3 0  9991","ELEMENT_SET_NO":"999","ARG_OF_PERICENTER":"94.4399","REV_AT_EPOCH":"2454","BSTAR":"0.00032528000000","RCS_SIZE":"LARGE","MEAN_MOTION_DOT":"0.00004895","ECCENTRICITY":"0.00008700","INCLINATION":"53.2162","SITE":"AFETR","MEAN_ELEMENT_THEORY":"SGP4"}];
